{
  "norad_id": 60270,
  "name": "STARLINK-32211",
  "history": [
    {
      "epoch": "2026-04-13T02:32:24.809280Z",
      "apogee_km": 476.21941478159715,
      "perigee_km": 474.2175496452428,
      "latitude_deg": 2.962641376907798e-05,
      "longitude_deg": 13.475657537989303,
      "height_km": 475.8884538447266,
      "semi_major_axis_km": 6853.35548221342,
      "eccentricity": 0.00014605,
      "inclination_deg": 53.1608,
      "raan_deg": 252.8804,
      "arg_perigee_deg": 76.8344,
      "mean_anomaly_deg": 283.282,
      "mean_motion_rev_day": 15.30198857
    },
    {
      "epoch": "2026-04-14T20:51:51.261120Z",
      "apogee_km": 476.1595719404513,
      "perigee_km": 474.30093874080376,
      "latitude_deg": 9.613286544894862e-06,
      "longitude_deg": 88.6886429585855,
      "height_km": 476.07889105480155,
      "semi_major_axis_km": 6853.367255340628,
      "eccentricity": 0.0001356,
      "inclination_deg": 53.1607,
      "raan_deg": 244.6918,
      "arg_perigee_deg": 86.9531,
      "mean_anomaly_deg": 273.1625,
      "mean_motion_rev_day": 15.30194914
    },
    {
      "epoch": "2026-04-15T18:48:36.140832Z",
      "apogee_km": 476.0522651468864,
      "perigee_km": 474.43212630501785,
      "latitude_deg": 1.2955930837078582e-05,
      "longitude_deg": 114.3528664381811,
      "height_km": 475.91665218108267,
      "semi_major_axis_km": 6853.379195725952,
      "eccentricity": 0.0001182,
      "inclination_deg": 53.1607,
      "raan_deg": 240.4443,
      "arg_perigee_deg": 73.9566,
      "mean_anomaly_deg": 286.1565,
      "mean_motion_rev_day": 15.30190915
    },
    {
      "epoch": "2026-04-16T15:11:17.750976Z",
      "apogee_km": 475.9791997351249,
      "perigee_km": 474.50846420858306,
      "latitude_deg": 1.4968717216453894e-05,
      "longitude_deg": 163.89809000289094,
      "height_km": 476.05616110602847,
      "semi_major_axis_km": 6853.380831971854,
      "eccentricity": 0.0001073,
      "inclination_deg": 53.1607,
      "raan_deg": 236.4998,
      "arg_perigee_deg": 83.2766,
      "mean_anomaly_deg": 276.8357,
      "mean_motion_rev_day": 15.30190367
    },
    {
      "epoch": "2026-04-17T14:42:05.446656Z",
      "apogee_km": 476.15029815086746,
      "perigee_km": 474.325792646282,
      "latitude_deg": 6.276058068326097e-05,
      "longitude_deg": 165.6832401955187,
      "height_km": 476.1607514220084,
      "semi_major_axis_km": 6853.375045398575,
      "eccentricity": 0.00013311,
      "inclination_deg": 53.1615,
      "raan_deg": 231.9493,
      "arg_perigee_deg": 91.5431,
      "mean_anomaly_deg": 268.5723,
      "mean_motion_rev_day": 15.30192305
    },
    {
      "epoch": "2026-04-18T14:12:53.150112Z",
      "apogee_km": 476.1708299667225,
      "perigee_km": 474.28752494115815,
      "latitude_deg": -1.2093845311935162e-05,
      "longitude_deg": 167.46816556846258,
      "height_km": 476.14872186128747,
      "semi_major_axis_km": 6853.36617745394,
      "eccentricity": 0.0001374,
      "inclination_deg": 53.1614,
      "raan_deg": 227.3987,
      "arg_perigee_deg": 91.306,
      "mean_anomaly_deg": 268.8098,
      "mean_motion_rev_day": 15.30195275
    },
    {
      "epoch": "2026-04-19T13:43:42.439008Z",
      "apogee_km": 475.9833409711773,
      "perigee_km": 474.5920957533508,
      "latitude_deg": 5.9105185439845544e-05,
      "longitude_deg": 169.24587449726118,
      "height_km": 476.42159609376625,
      "semi_major_axis_km": 6853.424718362264,
      "eccentricity": 0.0001015,
      "inclination_deg": 53.1624,
      "raan_deg": 222.8474,
      "arg_perigee_deg": 109.757,
      "mean_anomaly_deg": 250.3541,
      "mean_motion_rev_day": 15.30175669
    },
    {
      "epoch": "2026-04-20T06:58:16.684032Z",
      "apogee_km": 476.50503312543424,
      "perigee_km": 474.2570792030119,
      "latitude_deg": 2.825285161936032e-05,
      "longitude_deg": -93.44297578309711,
      "height_km": 476.78515830513595,
      "semi_major_axis_km": 6853.518056164223,
      "eccentricity": 0.000164,
      "inclination_deg": 53.1617,
      "raan_deg": 219.5094,
      "arg_perigee_deg": 116.7642,
      "mean_anomaly_deg": 243.3527,
      "mean_motion_rev_day": 15.3014441
    },
    {
      "epoch": "2026-04-21T06:29:03.780960Z",
      "apogee_km": 475.91350759741545,
      "perigee_km": 474.5426975096025,
      "latitude_deg": -3.8232338986440314e-05,
      "longitude_deg": -91.65451277543494,
      "height_km": 476.28019888341163,
      "semi_major_axis_km": 6853.365102553509,
      "eccentricity": 0.00010001,
      "inclination_deg": 53.1617,
      "raan_deg": 214.9598,
      "arg_perigee_deg": 102.9362,
      "mean_anomaly_deg": 257.175,
      "mean_motion_rev_day": 15.30195635
    },
    {
      "epoch": "2026-04-22T12:16:03.345312Z",
      "apogee_km": 475.76062964968514,
      "perigee_km": 474.5914544447123,
      "latitude_deg": -8.7765225264822e-06,
      "longitude_deg": 174.60726814865487,
      "height_km": 476.2983438379244,
      "semi_major_axis_km": 6853.313042047198,
      "eccentricity": 8.53e-05,
      "inclination_deg": 53.1605,
      "raan_deg": 209.1929,
      "arg_perigee_deg": 112.4803,
      "mean_anomaly_deg": 247.6288,
      "mean_motion_rev_day": 15.30213071
    },
    {
      "epoch": "2026-04-23T11:46:53.674464Z",
      "apogee_km": 475.71056286971816,
      "perigee_km": 474.8537484068793,
      "latitude_deg": 6.366709544657813e-06,
      "longitude_deg": 176.38508771293962,
      "height_km": 476.13409428748867,
      "semi_major_axis_km": 6853.419155638298,
      "eccentricity": 6.251e-05,
      "inclination_deg": 53.1621,
      "raan_deg": 204.6461,
      "arg_perigee_deg": 83.6727,
      "mean_anomaly_deg": 276.4345,
      "mean_motion_rev_day": 15.30177532
    },
    {
      "epoch": "2026-04-24T12:51:46.926720Z",
      "apogee_km": 478.990069681593,
      "perigee_km": 473.68470650520885,
      "latitude_deg": -3.787718508860731e-05,
      "longitude_deg": 154.2812100448439,
      "height_km": 479.06095399154793,
      "semi_major_axis_km": 6854.474388093401,
      "eccentricity": 0.000387,
      "inclination_deg": 53.1609,
      "raan_deg": 199.7942,
      "arg_perigee_deg": 133.5551,
      "mean_anomaly_deg": 226.5771,
      "mean_motion_rev_day": 15.29824194
    },
    {
      "epoch": "2026-04-25T12:22:32.561760Z",
      "apogee_km": 475.9607085655434,
      "perigee_km": 474.5776911944067,
      "latitude_deg": -3.754863851838922e-06,
      "longitude_deg": 156.07095771071423,
      "height_km": 475.88356274994277,
      "semi_major_axis_km": 6853.406199879974,
      "eccentricity": 0.0001009,
      "inclination_deg": 53.1599,
      "raan_deg": 195.2397,
      "arg_perigee_deg": 65.7358,
      "mean_anomaly_deg": 294.3748,
      "mean_motion_rev_day": 15.30181871
    },
    {
      "epoch": "2026-04-26T11:53:20.880384Z",
      "apogee_km": 475.953877849096,
      "perigee_km": 474.5115176625068,
      "latitude_deg": 1.4482141129935874e-05,
      "longitude_deg": 157.8546820236917,
      "height_km": 475.960189845986,
      "semi_major_axis_km": 6853.369697755801,
      "eccentricity": 0.00010523,
      "inclination_deg": 53.1597,
      "raan_deg": 190.6904,
      "arg_perigee_deg": 76.2933,
      "mean_anomaly_deg": 283.8185,
      "mean_motion_rev_day": 15.30194096
    },
    {
      "epoch": "2026-04-27T11:24:08.570880Z",
      "apogee_km": 476.0054053383765,
      "perigee_km": 474.48121355755484,
      "latitude_deg": 1.4317183146242115e-05,
      "longitude_deg": 159.640417415299,
      "height_km": 476.0887079192476,
      "semi_major_axis_km": 6853.380309447965,
      "eccentricity": 0.0001112,
      "inclination_deg": 53.1601,
      "raan_deg": 186.1405,
      "arg_perigee_deg": 86.0196,
      "mean_anomaly_deg": 274.0932,
      "mean_motion_rev_day": 15.30190542
    },
    {
      "epoch": "2026-04-28T20:00:01.000224Z",
      "apogee_km": 475.9517695971472,
      "perigee_km": 474.4234782060166,
      "latitude_deg": -50.30743934633954,
      "longitude_deg": -40.83475098290305,
      "height_km": 493.26282644158965,
      "semi_major_axis_km": 6853.324623901582,
      "eccentricity": 0.0001115,
      "inclination_deg": 53.1583,
      "raan_deg": 179.8316,
      "arg_perigee_deg": 83.2606,
      "mean_anomaly_deg": 203.1799,
      "mean_motion_rev_day": 15.30209192
    },
    {
      "epoch": "2026-04-29T13:33:50.656032Z",
      "apogee_km": 476.0013368177906,
      "perigee_km": 474.4565881298495,
      "latitude_deg": -1.6557138041038535e-05,
      "longitude_deg": 115.44527347674277,
      "height_km": 476.005016045902,
      "semi_major_axis_km": 6853.365962473819,
      "eccentricity": 0.0001127,
      "inclination_deg": 53.1602,
      "raan_deg": 176.4308,
      "arg_perigee_deg": 80.8923,
      "mean_anomaly_deg": 279.2205,
      "mean_motion_rev_day": 15.30195347
    },
    {
      "epoch": "2026-04-30T09:56:32.227296Z",
      "apogee_km": 476.031185465964,
      "perigee_km": 474.4412028849156,
      "latitude_deg": -5.076611785156628e-05,
      "longitude_deg": 164.99143078614148,
      "height_km": 476.0374976150412,
      "semi_major_axis_km": 6853.3731941754395,
      "eccentricity": 0.000116,
      "inclination_deg": 53.1604,
      "raan_deg": 172.4871,
      "arg_perigee_deg": 82.9929,
      "mean_anomaly_deg": 277.1203,
      "mean_motion_rev_day": 15.30192925
    },
    {
      "epoch": "2026-05-02T08:58:08.467104Z",
      "apogee_km": 476.17004493945024,
      "perigee_km": 474.35252371444676,
      "latitude_deg": 2.7436159875625972e-05,
      "longitude_deg": 168.55806808788853,
      "height_km": 476.1734369388632,
      "semi_major_axis_km": 6853.398284326949,
      "eccentricity": 0.0001326,
      "inclination_deg": 53.1609,
      "raan_deg": 163.386,
      "arg_perigee_deg": 90.887,
      "mean_anomaly_deg": 269.2283,
      "mean_motion_rev_day": 15.30184522
    }
  ]
}